P/2019 V2 (Groeller),e,11.8047,189.1621,336.3512,7.513917,0.0478525,0.33236284,0.5817,11/04.0/2020,2000,g 10.0,4.0
# From MPC119998
P/2019 W1 (PANSTARRS),e,23.4603,35.4069,18.7139,4.550472,0.1015358,0.26622268,55.4598,11/04.0/2020,2000,g 12.9,4.0
# From MPC119998
P/2019 X1 (Pruyne),e,10.2446,43.7055,36.6044,6.177496,0.0641927,0.30346665,30.3763,11/04.0/2020,2000,g 10.4,4.0
# From MPC119999
C/2019 Y1 (ATLAS),e,73.2547,31.5185,57.9753,86.18683,0.0012318,0.99035151,0.0000,03/15.5938/2020,2000,g 13.7,4.0
# From MPC119999
P/2019 Y2 (Fuls),e,4.9017,81.0813,91.7546,3.529241,0.1486559,0.39615530,41.3706,11/04.0/2020,2000,g 13.2,4.0
# From MPEC 2020-L06
C/2019 Y4 (ATLAS),e,45.3827,120.5721,177.3074,536.3651,0.0000793,0.99952845,0.0000,05/31.0583/2020,2000,g 11.8,6.0
# From MPEC 2020-L06
C/2019 Y4-A (ATLAS),h,05/31.0415/2020,45.8244,120.9284,177.2500,1.001343,0.251056,2000,11.6,6.0
# From MPEC 2020-L06
C/2019 Y4-B (ATLAS),e,45.4590,120.6242,177.3833,1085,0.0000276,0.99976725,0.0000,05/31.0202/2020,2000,g 12.8,6.0
# From MPEC 2020-L06
C/2019 Y4-C (ATLAS),h,05/30.9997/2020,45.6067,120.6541,177.2833,1.002060,0.252105,2000,12.7,6.0
# From MPEC 2020-L06
C/2019 Y4-D (ATLAS),e,45.6481,121.0347,177.4222,67.25122,0.0017871,0.99626022,0.0000,05/31.1168/2020,2000,g 12.5,6.0
# From MPEC 2020-L06
C/2020 A2 (Iwamoto),e,120.7481,286.3788,68.2117,1243,0.0000225,0.99921339,0.0000,01/08.3404/2020,2000,g 13.5,4.0
# From MPEC 2020-L06
C/2020 A3 (ATLAS),h,07/29.6358/2019,146.7768,120.3774,271.1663,1.024964,5.839467,2000,8.0,4.0
# From MPEC 2020-L06
C/2020 B3 (Rankin),e,20.7050,185.8266,325.0785,1545,0.0000162,0.99783466,0.0000,10/19.8057/2019,2000,g 13.0,4.0
# From MPEC 2020-L06
C/2020 F2 (ATLAS),h,07/16.6529/2022,163.5754,250.2509,48.3729,1.002542,8.816961,2000,4.5,4.0
# From MPEC 2020-L06
C/2020 F3 (NEOWISE),e,128.9337,61.0130,37.2703,368.4837,0.0001393,0.99920017,0.0000,07/03.6831/2020,2000,g 12.5,3.2
# From MPEC 2020-L06
C/2020 F5 (MASTER),h,03/23.9833/2021,51.7011,350.6264,311.0213,1.002186,4.326784,2000,6.5,3.2
# From MPEC 2020-L06
C/2020 F6 (PANSTARRS),e,174.5816,207.8813,344.6000,380.0950,0.0001330,0.99076272,0.0000,04/11.6079/2020,2000,g 14.5,2.8
# From MPEC 2020-L06
A/2020 F7,e,93.9512,321.8862,227.9887,778.9689,0.0000453,0.99315550,0.0000,11/14.1222/2021,2000,g 12.0,2.0
# From MPEC 2020-KB7
C/2020 F8 (SWAN),e,110.7930,260.0076,68.2216,273.7146,0.0002176,0.99842766,0.0000,05/27.5669/2020,2000,g 10.0,4.0
# From MPEC 2020-L06
P/2020 G1 (Pimentel),e,18.4768,240.0933,207.6636,3.611542,0.1436035,0.85992186,33.2574,11/04.0/2020,2000,g 17.0,4.0
# From MPEC 2020-L06
C/2020 H2 (Pruyne),e,125.0432,277.6365,26.6974,186.1067,0.0003882,0.99552051,0.0000,04/27.5932/2020,2000,g 18.0,4.0
# From MPEC 2020-HM1
C/2020 H3 (Wierzchos),p,06/05.7162/2020,62.5292,30.4456,2.300288,270.6227,2000,13.5,4.0
# From MPEC 2020-L06
C/2020 H4 (Leonard),e,84.5147,307.7367,117.6124,48.19059,0.0029462,0.98075940,0.0000,08/29.5181/2020,2000,g 15.0,3.2
# From MPEC 2020-L06
C/2020 H5 (Robinson),e,70.2486,210.6006,325.0642,1082,0.0000277,0.99134570,0.0000,11/14.8819/2020,2000,g  5.0,4.0
# From MPEC 2020-L06
C/2020 H6 (ATLAS),h,09/30.9412/2021,79.9637,213.6989,20.3119,1.000882,4.704789,2000,8.0,3.2
# From MPEC 2020-KB7
C/2020 H7 (Lemmon),e,135.9235,323.5194,82.6780,1405,0.0000187,0.99685380,0.0000,06/02.9510/2020,2000,g 11.0,4.0
# From MPEC 2020-KB7
C/2020 H8 (PANSTARRS),p,06/06.7207/2020,99.7116,129.2192,4.678446,68.3225,2000,10.5,4.0
# From MPEC 2020-L06
A/2020 H9,e,137.8702,213.1200,312.8820,524.3091,0.0000821,0.99508096,0.0000,12/21.3379/2019,2000,g 18.0,2.0
# From MPEC 2020-L06
C/2020 J1 (SONEAR),e,142.2961,226.5860,341.7126,490.6935,0.0000907,0.99315239,0.0000,04/19.3278/2021,2000,g  8.5,3.2
# From MPEC 2020-L06
C/2020 K1 (PANSTARRS),h,05/08.1174/2023,89.6522,94.3673,213.9067,1.000806,3.074728,2000,5.5,4.0
# From MPEC 2020-KF5
C/2020 K2 (PANSTARRS),p,12/30.6730/2018,89.7510,34.2348,8.177098,285.5819,2000,6.5,4.0
# From MPEC 2020-KF9
C/2020 K3 (Leonard),p,06/01.0032/2020,129.0152,64.4924,1.583069,28.3546,2000,14.5,4.0
# From MPEC 2020-L06
C/2020 K4 (PANSTARRS),e,125.5621,264.0944,308.7643,23.89340,0.0084389,0.92664066,2.0697,11/04.0/2020,2000,g 16.5,4.0
# From MPEC 2020-L06
C/2020 K5 (PANSTARRS),h,06/05.5950/2021,67.1642,86.1610,249.6012,1.001473,1.535377,2000,11.0,4.0
# From MPEC 2020-L06
C/2020 K6 (Rankin),h,08/26.2359/2021,103.8018,291.5637,41.6766,1.000907,5.993488,2000,8.0,4.0
# From MPEC 2020-L09
C/2020 K7 (PANSTARRS),p,10/05.3027/2021,34.5520,60.8413,5.644571,287.4776,2000,8.0,4.0
# From MPEC 2020-SI8
C/2020 K8 (Catalina-ATLAS),h,09/14.5161/2020,31.4136,181.5193,260.0551,1.000319,0.474611,2000,15.0,3.2
# From MPEC 2020-UR0
P/2020 K9 (Lemmon-PANSTARRS),e,23.2070,166.2392,196.8607,4.201800,0.1144329,0.32183895,348.5858,11/04.0/2020,2000,g 12.5,4.0
# From MPEC 2020-UR0
C/2020 M3 (ATLAS),e,23.4734,71.2502,328.4456,26.81986,0.0070961,0.95271246,0.0665,11/04.0/2020,2000,g 14.5,4.0
# From MPEC 2020-UR0
C/2020 M5 (ATLAS),e,93.2224,352.0979,126.3366,8430,0.0000013,0.99964359,0.0000,08/19.8879/2021,2000,g  9.0,4.0
# From MPEC 2020-UR0
C/2020 N1 (PANSTARRS),h,03/12.2400/2021,29.7038,279.9843,186.7707,1.000398,1.320761,2000,12.5,4.0
# From MPEC 2020-UR0
C/2020 N2 (ATLAS),e,161.0337,257.0717,331.2017,108.3838,0.0008735,0.98344817,0.0000,08/23.6709/2020,2000,g 16.0,3.2
# From MPEC 2020-UR0
C/2020 O2 (Amaral),h,08/28.1701/2021,71.7526,256.7524,10.2305,1.001372,4.864196,2000,8.0,3.2
# From MPEC 2020-UR0
C/2020 P1 (NEOWISE),h,10/20.1796/2020,45.0518,53.5374,8.8972,1.000252,0.342199,2000,14.0,3.2
# From MPEC 2020-UR0
C/2020 P3 (ATLAS),e,61.8882,19.5000,82.2469,6180,0.0000020,0.99889768,0.0000,04/20.9389/2021,2000,g  6.0,4.0
# From MPEC 2020-UR0
C/2020 Q1 (Borisov),e,142.9239,52.3781,9.8806,58.83936,0.0021837,0.97765187,0.0000,08/14.6530/2020,2000,g 14.0,4.0
# From MPEC 2020-UR0
C/2020 R2 (PANSTARRS),e,53.2200,195.0941,211.6772,392.5474,0.0001267,0.98804382,0.0000,02/24.1805/2022,2000,g  9.0,4.0
# From MPEC 2020-UR0
C/2020 R4 (ATLAS),e,164.4629,323.2728,46.7137,97.10287,0.0010300,0.98940717,0.0000,03/01.9402/2021,2000,g 13.5,4.0
# From MPEC 2020-K19
P/2020 M1 (PANSTARRS),e,8.6355,142.9318,67.9570,5.096145,0.0856725,0.47774910,27.2882,11/04.0/2020,2000,g 14.5,4.0
# From MPEC 2020-N01
P/2020 M2 (Lemmon),e,10.9284,8.2097,14.4022,3.826144,0.1316928,0.40490476,18.1358,11/04.0/2020,2000,g 12.0,4.0
# From MPEC 2020-SI8
C/2020 M3 (ATLAS),e,23.4730,71.2482,328.4485,26.78230,0.0071110,0.95264709,0.0667,11/04.0/2020,2000,g 14.5,4.0
# From MPEC 2020-K19
A/2020 M4,e,160.1255,348.6316,104.6345,5579,0.0000024,0.99893310,0.0000,11/23.7266/2020,2000,g 14.5,2.0
# From MPEC 2020-SI8
C/2020 M5 (ATLAS),e,93.2225,352.0980,126.3372,7858,0.0000014,0.99961763,0.0000,08/19.8928/2021,2000,g  9.0,4.0
# From MPEC 2020-SI8
C/2020 N1 (PANSTARRS),h,03/12.2327/2021,29.7037,279.9821,186.7741,1.000429,1.320682,2000,12.5,4.0
# From MPEC 2020-K19
C/2020 N2 (ATLAS),e,161.0352,257.0577,331.1619,126.5157,0.0006926,0.98581786,0.0000,08/23.6140/2020,2000,g 16.0,3.2
# From MPEC 2020-SI8
P/2020 O1 (Lemmon-PANSTARRS),e,5.2247,175.9780,104.7214,2.645675,0.2290337,0.11968577,42.2871,11/04.0/2020,2000,g 15.5,4.0
# From MPEC 2020-K19
C/2020 O2 (Amaral),e,71.8914,256.6300,9.3985,22565,0.0000003,0.99978267,0.0000,08/23.9119/2021,2000,g  8.0,3.2
# From MPEC 2020-SI8
P/2020 O3 (PANSTARRS),e,8.4415,266.8802,81.3790,4.659260,0.0980006,0.10571181,351.5634,11/04.0/2020,2000,g 12.0,4.0
# From MPEC 2020-SI8
C/2020 P1 (NEOWISE),h,10/20.1770/2020,45.0690,53.5465,8.8873,1.000627,0.342054,2000,14.0,3.2
# From MPEC 2020-SI8
C/2020 P3 (ATLAS),e,61.8906,19.5067,82.2658,22909,0.0000003,0.99970263,0.0000,04/21.1858/2021,2000,g  6.0,4.0
# From MPEC 2020-QN1
C/2020 P4-A (SOHO),h,08/08.2179/2020,26.3316,175.2061,177.4771,1.002092,0.090758,2000,5.3,6.0
# From MPEC 2020-QN1
C/2020 P4-B (SOHO),h,08/08.1271/2020,27.3016,171.4988,173.4044,1.000486,0.098304,2000,0.0,6.0
# From MPEC 2020-QN1
C/2020 P4-C (SOHO),h,08/06.8015/2020,37.4581,164.0407,116.7345,1.012860,0.086550,2000,-1.6,6.0
# From MPEC 2020-SI8
C/2020 Q1 (Borisov),e,142.9240,52.3602,9.8044,52.67108,0.0025784,0.97504376,0.0000,08/14.5705/2020,2000,g 14.0,4.0
# From MPEC 2020-SI8
C/2020 R2 (PANSTARRS),e,53.2377,195.0833,211.7313,448.2552,0.0001039,0.98953550,0.0000,02/24.2497/2022,2000,g  9.0,4.0
# From MPEC 2020-SI8
C/2020 R4 (ATLAS),e,164.4629,323.2726,46.7020,98.51833,0.0010079,0.98955789,0.0000,03/01.9302/2021,2000,g 13.5,4.0
# From MPEC 2020-UR0
P/2020 R5 (PANSTARRS),e,11.4543,272.9703,82.3300,4.979021,0.0887132,0.31449273,14.1717,11/04.0/2020,2000,g  9.5,6.0
# From MPEC 2020-UR0
C/2020 R6 (Rankin),e,82.8220,12.1750,272.0012,437.9123,0.0001076,0.99285424,0.0000,09/10.0618/2019,2000,g 11.0,4.0
# From MPEC 2020-UR0
C/2020 R7 (ATLAS),h,09/16.2591/2022,114.8930,268.2897,347.7130,1.000290,2.962424,2000,7.0,3.2
# From MPEC 2020-UR0
P/2020 S1 (PANSTARRS),e,13.7340,129.4590,254.8726,5.980229,0.0673949,0.50715859,355.0186,11/04.0/2020,2000,g 14.0,4.0
# From MPEC 2020-UR0
C/2020 S2 (PANSTARRS),e,22.3961,197.6868,202.2605,10.16965,0.0303910,0.82732578,358.5433,11/04.0/2020,2000,g 17.0,4.0
# From MPEC 2020-UR0
C/2020 S3 (Erasmus),e,19.8620,223.0047,349.8585,209.6115,0.0003248,0.99809808,0.0000,12/12.6695/2020,2000,g 13.5,3.2
# From MPEC 2020-UR0
C/2020 S4 (PANSTARRS),h,02/07.9782/2023,20.5770,117.6930,21.1187,1.002720,3.359385,2000,8.5,3.2
# From MPEC 2020-UR0
P/2020 S5 (PANSTARRS),e,12.3540,315.9982,53.0272,4.047953,0.1210183,0.33824532,10.5992,11/04.0/2020,2000,g 14.5,4.0
# From MPEC 2020-UR0
P/2020 S6 (Leonard),e,15.4601,242.5709,176.6535,3.598811,0.1443662,0.47904118,357.1688,11/04.0/2020,2000,g 16.0,4.0
# From MPEC 2020-UR0
P/2020 S7 (PANSTARRS),e,16.0922,328.0188,40.4033,5.023207,0.0875452,0.41053285,358.7687,11/04.0/2020,2000,g 14.5,4.0
# From MPEC 2020-UR0
C/2020 S8 (Lemmon),e,108.5175,24.0517,160.3286,268.9761,0.0002234,0.99121130,0.0000,04/10.9256/2021,2000,g 12.5,4.0
# From MPEC 2020-UR0
